[{"OBJECT_NAME":"CENTISPACE-1 S13","OBJECT_ID":"2025-007H","EPOCH":"2026-03-09T23:09:05.132736","MEAN_MOTION":13.82892248,"ECCENTRICITY":0.0009712,"INCLINATION":54.9822,"RA_OF_ASC_NODE":278.4888,"ARG_OF_PERICENTER":239.9953,"MEAN_ANOMALY":120.0041,"EPHEMERIS_TYPE":0,"CLASSIFICATION_TYPE":"U","NORAD_CAT_ID":62582,"ELEMENT_SET_NO":999,"REV_AT_EPOCH":6102,"BSTAR":0.00010239415,"MEAN_MOTION_DOT":-2.9e-7,"MEAN_MOTION_DDOT":0},{"OBJECT_NAME":"COSMOS 1249","OBJECT_ID":"1981-021A","EPOCH":"2026-03-09T08:08:56.792544","MEAN_MOTION":13.86768837,"ECCENTRICITY":0.00658295,"INCLINATION":64.9643,"RA_OF_ASC_NODE":41.8813,"ARG_OF_PERICENTER":294.1699,"MEAN_ANOMALY":65.2489,"EPHEMERIS_TYPE":0,"CLASSIFICATION_TYPE":"U","NORAD_CAT_ID":12319,"ELEMENT_SET_NO":999,"REV_AT_EPOCH":28100,"BSTAR":2.198671e-5,"MEAN_MOTION_DOT":-6.4e-7,"MEAN_MOTION_DDOT":0}]
